start=new Date('2022-09-13T00:00:00.000Z').valueOf();
sats=[{"EPHEMERIS_TYPE":"0","OBJECT_ID":"2020-057AS","REF_FRAME":"TEME","DECAY_DATE":null,"TLE_LINE2":"2 46157  53.0548 237.7322 0001642  69.9935 290.1231 15.06398242114543","SEMIMAJOR_AXIS":"6925.354","CENTER_NAME":"EARTH","REV_AT_EPOCH":"11454","PERIAPSIS":"546.082","ELEMENT_SET_NO":"999","SITE":"AFETR","BSTAR":"0.00001597700000","LAUNCH_DATE":"2020-08-18","OBJECT_TYPE":"PAYLOAD","APOAPSIS":"548.356","NORAD_CAT_ID":"46157","FILE":"3570189","TLE_LINE1":"1 46157U 20057AS  22255.26839965 -.00000044  00000-0  15977-4 0  9993","RCS_SIZE":"LARGE","MEAN_ANOMALY":"290.1231","ARG_OF_PERICENTER":"69.9935","MEAN_MOTION_DOT":"-0.00000044","PERIOD":"95.592","RA_OF_ASC_NODE":"237.7322","EPOCH":"2022-09-12T06:26:29.729760","COUNTRY_CODE":"US","OBJECT_NAME":"STARLINK-1587","MEAN_MOTION":"15.06398242","ECCENTRICITY":"0.00016420","CLASSIFICATION_TYPE":"U","INCLINATION":"53.0548","MEAN_ELEMENT_THEORY":"SGP4","GP_ID":"212396954","TIME_SYSTEM":"UTC","MEAN_MOTION_DDOT":"0.0000000000000"},{"INCLINATION":"53.0522","MEAN_ELEMENT_THEORY":"SGP4","GP_ID":"212397704","TIME_SYSTEM":"UTC","MEAN_MOTION_DDOT":"0.0000000000000","COUNTRY_CODE":"US","OBJECT_NAME":"STARLINK-1589","MEAN_MOTION":"15.06405511","ECCENTRICITY":"0.00013600","CLASSIFICATION_TYPE":"U","RA_OF_ASC_NODE":"236.8509","EPOCH":"2022-09-12T11:07:47.835840","MEAN_ANOMALY":"284.6618","ARG_OF_PERICENTER":"75.4522","MEAN_MOTION_DOT":"0.00002100","PERIOD":"95.592","FILE":"3570189","NORAD_CAT_ID":"46158","TLE_LINE1":"1 46158U 20057AT  22255.46374810  .00002100  00000-0  15982-3 0  9998","RCS_SIZE":"LARGE","BSTAR":"0.00015982000000","LAUNCH_DATE":"2020-08-18","OBJECT_TYPE":"PAYLOAD","APOAPSIS":"548.139","SEMIMAJOR_AXIS":"6925.332","CENTER_NAME":"EARTH","REV_AT_EPOCH":"11583","PERIAPSIS":"546.255","SITE":"AFETR","ELEMENT_SET_NO":"999","EPHEMERIS_TYPE":"0","OBJECT_ID":"2020-057AT","REF_FRAME":"TEME","DECAY_DATE":null,"TLE_LINE2":"2 46158  53.0522 236.8509 0001360  75.4522 284.6618 15.06405511115832"},{"PERIOD":"95.593","MEAN_MOTION_DOT":"-0.00000384","MEAN_ANOMALY":"292.3027","ARG_OF_PERICENTER":"67.8118","RA_OF_ASC_NODE":"276.9675","EPOCH":"2022-09-12T10:30:39.174624","ECCENTRICITY":"0.00014740","MEAN_MOTION":"15.06393623","CLASSIFICATION_TYPE":"U","COUNTRY_CODE":"US","OBJECT_NAME":"STARLINK-1595","TIME_SYSTEM":"UTC","MEAN_MOTION_DDOT":"0.0000000000000","MEAN_ELEMENT_THEORY":"SGP4","INCLINATION":"53.0552","GP_ID":"212396453","REF_FRAME":"TEME","DECAY_DATE":null,"TLE_LINE2":"2 46159  53.0552 276.9675 0001474  67.8118 292.3027 15.06393623115264","OBJECT_ID":"2020-057AU","EPHEMERIS_TYPE":"0","ELEMENT_SET_NO":"999","SITE":"AFETR","PERIAPSIS":"546.212","REV_AT_EPOCH":"11526","CENTER_NAME":"EARTH","SEMIMAJOR_AXIS":"6925.368","APOAPSIS":"548.254","BSTAR":"-0.00000690060000","LAUNCH_DATE":"2020-08-18","OBJECT_TYPE":"PAYLOAD","RCS_SIZE":"LARGE","TLE_LINE1":"1 46159U 20057AU  22255.43795341 -.00000384  00000-0 -69006-5 0  9994","NORAD_CAT_ID":"46159","FILE":"3570189"},{"SEMIMAJOR_AXIS":"6925.368","REV_AT_EPOCH":"11557","CENTER_NAME":"EARTH","PERIAPSIS":"546.386","SITE":"AFETR","ELEMENT_SET_NO":"999","EPHEMERIS_TYPE":"0","OBJECT_ID":"2020-057AV","REF_FRAME":"TEME","DECAY_DATE":null,"TLE_LINE2":"2 46160  53.0546 255.8041 0001222  68.1252 291.9867 15.06393800115574","FILE":"3570509","NORAD_CAT_ID":"46160","TLE_LINE1":"1 46160U 20057AV  22255.69412426  .00001442  00000-0  11572-3 0  9991","RCS_SIZE":"LARGE","BSTAR":"0.00011572000000","OBJECT_TYPE":"PAYLOAD","LAUNCH_DATE":"2020-08-18","APOAPSIS":"548.079","RA_OF_ASC_NODE":"255.8041","EPOCH":"2022-09-12T16:39:32.336064","MEAN_ANOMALY":"291.9867","ARG_OF_PERICENTER":"68.1252","MEAN_MOTION_DOT":"0.00001442","PERIOD":"95.593","MEAN_ELEMENT_THEORY":"SGP4","INCLINATION":"53.0546","GP_ID":"212429028","TIME_SYSTEM":"UTC","MEAN_MOTION_DDOT":"0.0000000000000","COUNTRY_CODE":"US","OBJECT_NAME":"STARLINK-1598","MEAN_MOTION":"15.06393800","ECCENTRICITY":"0.00012220","CLASSIFICATION_TYPE":"U"},{"GP_ID":"212397454","MEAN_ELEMENT_THEORY":"SGP4","INCLINATION":"53.0531","MEAN_MOTION_DDOT":"0.0000000000000","TIME_SYSTEM":"UTC","OBJECT_NAME":"STARLINK-1600","COUNTRY_CODE":"US","CLASSIFICATION_TYPE":"U","MEAN_MOTION":"15.06402255","ECCENTRICITY":"0.00013090","EPOCH":"2022-09-12T11:21:03.857184","RA_OF_ASC_NODE":"256.7935","ARG_OF_PERICENTER":"81.7136","MEAN_ANOMALY":"278.4001","MEAN_MOTION_DOT":"0.00001627","PERIOD":"95.592","FILE":"3570189","NORAD_CAT_ID":"46161","TLE_LINE1":"1 46161U 20057AW  22255.47296131  .00001627  00000-0  12810-3 0  9992","RCS_SIZE":"LARGE","OBJECT_TYPE":"PAYLOAD","LAUNCH_DATE":"2020-08-18","BSTAR":"0.00012810000000","APOAPSIS":"548.113","SEMIMAJOR_AXIS":"6925.342","CENTER_NAME":"EARTH","REV_AT_EPOCH":"11554","PERIAPSIS":"546.300","ELEMENT_SET_NO":"999","SITE":"AFETR","OBJECT_ID":"2020-057AW","EPHEMERIS_TYPE":"0","TLE_LINE2":"2 46161  53.0531 256.7935 0001309  81.7136 278.4001 15.06402255115541","REF_FRAME":"TEME","DECAY_DATE":null},{"APOAPSIS":"548.339","BSTAR":"-0.00007568300000","LAUNCH_DATE":"2020-08-18","OBJECT_TYPE":"PAYLOAD","TLE_LINE1":"1 46162U 20057AX  22256.14011685 -.00001409  00000-0 -75683-4 0  9995","RCS_SIZE":"LARGE","NORAD_CAT_ID":"46162","FILE":"3570566","REF_FRAME":"TEME","DECAY_DATE":null,"TLE_LINE2":"2 46162  53.0529 253.8179 0001654  79.7567 280.3609 15.06406533115061","OBJECT_ID":"2020-057AX","EPHEMERIS_TYPE":"0","PERIAPSIS":"546.048","SITE":"AFETR","ELEMENT_SET_NO":"999","SEMIMAJOR_AXIS":"6925.329","REV_AT_EPOCH":"11506","CENTER_NAME":"EARTH","MEAN_MOTION":"15.06406533","ECCENTRICITY":"0.00016540","CLASSIFICATION_TYPE":"U","COUNTRY_CODE":"US","OBJECT_NAME":"STARLINK-1603","TIME_SYSTEM":"UTC","MEAN_MOTION_DDOT":"0.0000000000000","MEAN_ELEMENT_THEORY":"SGP4","INCLINATION":"53.0529","GP_ID":"212435337","MEAN_MOTION_DOT":"-0.00001409","PERIOD":"95.592","MEAN_ANOMALY":"280.3609","ARG_OF_PERICENTER":"79.7567","RA_OF_ASC_NODE":"253.8179","EPOCH":"2022-09-13T03:21:46.095840"},{"ECCENTRICITY":"0.00015080","MEAN_MOTION":"15.06407259","CLASSIFICATION_TYPE":"U","COUNTRY_CODE":"US","OBJECT_NAME":"STARLINK-1610","TIME_SYSTEM":"UTC","MEAN_MOTION_DDOT":"0.0000000000000","MEAN_ELEMENT_THEORY":"SGP4","INCLINATION":"53.0553","GP_ID":"212435127","PERIOD":"95.592","MEAN_MOTION_DOT":"0.00001323","MEAN_ANOMALY":"283.3763","ARG_OF_PERICENTER":"76.7394","RA_OF_ASC_NODE":"233.8081","EPOCH":"2022-09-13T03:19:06.400128","APOAPSIS":"548.236","BSTAR":"0.00010769000000","LAUNCH_DATE":"2020-08-18","OBJECT_TYPE":"PAYLOAD","RCS_SIZE":"LARGE","TLE_LINE1":"1 46163U 20057AY  22256.13826852  .00001323  00000-0  10769-3 0  9991","NORAD_CAT_ID":"46163","FILE":"3570568","DECAY_DATE":null,"REF_FRAME":"TEME","TLE_LINE2":"2 46163  53.0553 233.8081 0001508  76.7394 283.3763 15.06407259115332","EPHEMERIS_TYPE":"0","OBJECT_ID":"2020-057AY","ELEMENT_SET_NO":"999","SITE":"AFETR","PERIAPSIS":"546.147","CENTER_NAME":"EARTH","REV_AT_EPOCH":"11533","SEMIMAJOR_AXIS":"6925.326"},{"EPOCH":"2022-09-12T08:07:20.095392","RA_OF_ASC_NODE":"237.3925","ARG_OF_PERICENTER":"69.1119","MEAN_ANOMALY":"291.0033","MEAN_MOTION_DOT":"0.00003151","PERIOD":"95.592","GP_ID":"212396204","INCLINATION":"53.0531","MEAN_ELEMENT_THEORY":"SGP4","MEAN_MOTION_DDOT":"0.0000000000000","TIME_SYSTEM":"UTC","OBJECT_NAME":"STARLINK-1612","COUNTRY_CODE":"US","CLASSIFICATION_TYPE":"U","MEAN_MOTION":"15.06401722","ECCENTRICITY":"0.00015240","SEMIMAJOR_AXIS":"6925.343","REV_AT_EPOCH":"11581","CENTER_NAME":"EARTH","PERIAPSIS":"546.153","ELEMENT_SET_NO":"999","SITE":"AFETR","OBJECT_ID":"2020-057AZ","EPHEMERIS_TYPE":"0","TLE_LINE2":"2 46164  53.0531 237.3925 0001524  69.1119 291.0033 15.06401722115812","DECAY_DATE":null,"REF_FRAME":"TEME","FILE":"3570189","NORAD_CAT_ID":"46164","TLE_LINE1":"1 46164U 20057AZ  22255.33842703  .00003151  00000-0  23031-3 0  9993","RCS_SIZE":"LARGE","OBJECT_TYPE":"PAYLOAD","LAUNCH_DATE":"2020-08-18","BSTAR":"0.00023031000000","APOAPSIS":"548.264"},{"PERIOD":"95.006","MEAN_MOTION_DOT":"0.00014239","MEAN_ANOMALY":"265.9054","ARG_OF_PERICENTER":"94.2163","RA_OF_ASC_NODE":"268.6894","EPOCH":"2022-09-12T10:01:47.049888","ECCENTRICITY":"0.00019600","MEAN_MOTION":"15.15690095","CLASSIFICATION_TYPE":"U","COUNTRY_CODE":"US","OBJECT_NAME":"STARLINK-1613","TIME_SYSTEM":"UTC","MEAN_MOTION_DDOT":"0.0000000000000","INCLINATION":"53.0520","MEAN_ELEMENT_THEORY":"SGP4","GP_ID":"212396955","DECAY_DATE":null,"REF_FRAME":"TEME","TLE_LINE2":"2 46165  53.0520 268.6894 0001960  94.2163 265.9054 15.15690095114124","EPHEMERIS_TYPE":"0","OBJECT_ID":"2020-057BA","ELEMENT_SET_NO":"999","SITE":"AFETR","PERIAPSIS":"517.534","REV_AT_EPOCH":"11412","CENTER_NAME":"EARTH","SEMIMAJOR_AXIS":"6897.021","APOAPSIS":"520.238","BSTAR":"0.00075355000000","OBJECT_TYPE":"PAYLOAD","LAUNCH_DATE":"2020-08-18","RCS_SIZE":"LARGE","TLE_LINE1":"1 46165U 20057BA  22255.41790567  .00014239  00000-0  75355-3 0  9998","FILE":"3570189","NORAD_CAT_ID":"46165"},{"ARG_OF_PERICENTER":"83.0905","MEAN_ANOMALY":"277.0246","MEAN_MOTION_DOT":"0.00001896","PERIOD":"95.592","EPOCH":"2022-09-12T18:54:52.836192","RA_OF_ASC_NODE":"275.3909","OBJECT_NAME":"STARLINK-1615","COUNTRY_CODE":"US","CLASSIFICATION_TYPE":"U","MEAN_MOTION":"15.06401562","ECCENTRICITY":"0.00014230","GP_ID":"212403514","INCLINATION":"53.0552","MEAN_ELEMENT_THEORY":"SGP4","MEAN_MOTION_DDOT":"0.0000000000000","TIME_SYSTEM":"UTC","EPHEMERIS_TYPE":"0","OBJECT_ID":"2020-057BB","TLE_LINE2":"2 46166  53.0552 275.3909 0001423  83.0905 277.0246 15.06401562114728","DECAY_DATE":null,"REF_FRAME":"TEME","SEMIMAJOR_AXIS":"6925.344","REV_AT_EPOCH":"11472","CENTER_NAME":"EARTH","PERIAPSIS":"546.223","SITE":"AFETR","ELEMENT_SET_NO":"999","OBJECT_TYPE":"PAYLOAD","LAUNCH_DATE":"2020-08-18","BSTAR":"0.00014615000000","APOAPSIS":"548.194","FILE":"3570269","NORAD_CAT_ID":"46166","TLE_LINE1":"1 46166U 20057BB  22255.78811153  .00001896  00000-0  14615-3 0  9991","RCS_SIZE":"LARGE"}];
